CORVUS BC2              
1 42846U 17042X   26068.92684092  .00004947  00000+0  34626-3 0  9997
2 42846  97.3955 234.2405 0014586  92.3850 267.9047 15.05610206472122
STARLINK-4141           
1 53138U 22083G   26068.60339296  .00001918  00000+0  13861-3 0  9995
2 53138  53.2178 169.6900 0001298  88.4407 271.6733 15.08827996202042
